[{"OBJECT_NAME":"KINEIS-1E","OBJECT_ID":"2024-114E","EPOCH":"2026-03-09T22:57:11.384064","MEAN_MOTION":14.80427699,"ECCENTRICITY":0.0002464,"INCLINATION":97.9929,"RA_OF_ASC_NODE":93.4952,"ARG_OF_PERICENTER":86.0273,"MEAN_ANOMALY":274.122,"EPHEMERIS_TYPE":0,"CLASSIFICATION_TYPE":"U","NORAD_CAT_ID":60083,"ELEMENT_SET_NO":999,"REV_AT_EPOCH":9270,"BSTAR":0.00020731869,"MEAN_MOTION_DOT":1.531e-5,"MEAN_MOTION_DDOT":0},{"OBJECT_NAME":"CZ-6A DEB","OBJECT_ID":"2024-140TE","EPOCH":"2026-03-09T14:15:52.010208","MEAN_MOTION":14.60552911,"ECCENTRICITY":0.0091089,"INCLINATION":89.0388,"RA_OF_ASC_NODE":285.1287,"ARG_OF_PERICENTER":244.8325,"MEAN_ANOMALY":114.3421,"EPHEMERIS_TYPE":0,"CLASSIFICATION_TYPE":"U","NORAD_CAT_ID":61293,"ELEMENT_SET_NO":999,"REV_AT_EPOCH":8120,"BSTAR":0.0011803,"MEAN_MOTION_DOT":6.094e-5,"MEAN_MOTION_DDOT":0}]
